[{"ORDINAL":"1","COMMENT":"GENERATED VIA SPACETRACK.ORG API","ORIGINATOR":"JSPOC","NORAD_CAT_ID":"41571","OBJECT_NAME":"FLOCK 2E 9","OBJECT_TYPE":"PAYLOAD","CLASSIFICATION_TYPE":"U","INTLDES":"98067JV","EPOCH":"2016-06-23 14:44:19","EPOCH_MICROSECONDS":"853088","MEAN_MOTION":"15.56318953","ECCENTRICITY":"0.000294","INCLINATION":"51.6425","RA_OF_ASC_NODE":"25.7608","ARG_OF_PERICENTER":"211.5766","MEAN_ANOMALY":"148.5569","EPHEMERIS_TYPE":"0","ELEMENT_SET_NO":"999","REV_AT_EPOCH":"349","BSTAR":"0.00025428","MEAN_MOTION_DOT":"0.00018285","MEAN_MOTION_DDOT":"0","FILE":"2050754","TLE_LINE0":"0 FLOCK 2E 9","TLE_LINE1":"1 41571U 98067JV  16175.61411867  .00018285  00000-0  25428-3 0  9990","TLE_LINE2":"2 41571  51.6425  25.7608 0002940 211.5766 148.5569 15.56318953  3494","OBJECT_ID":"1998-067JV","OBJECT_NUMBER":"41571","SEMIMAJOR_AXIS":"6776.458","PERIOD":"92.526","APOGEE":"400.315","PERIGEE":"396.331"},{"ORDINAL":"1","COMMENT":"GENERATED VIA SPACETRACK.ORG API","ORIGINATOR":"JSPOC","NORAD_CAT_ID":"41572","OBJECT_NAME":"FLOCK 2E 10","OBJECT_TYPE":"PAYLOAD","CLASSIFICATION_TYPE":"U","INTLDES":"98067JW","EPOCH":"2016-06-23 16:18:44","EPOCH_MICROSECONDS":"390016","MEAN_MOTION":"15.56257191","ECCENTRICITY":"0.0003871","INCLINATION":"51.6416","RA_OF_ASC_NODE":"25.4481","ARG_OF_PERICENTER":"210.0901","MEAN_ANOMALY":"150.0384","EPHEMERIS_TYPE":"0","ELEMENT_SET_NO":"999","REV_AT_EPOCH":"350","BSTAR":"0.0014701","MEAN_MOTION_DOT":"0.00105486","MEAN_MOTION_DDOT":"0","FILE":"2050790","TLE_LINE0":"0 FLOCK 2E 10","TLE_LINE1":"1 41572U 98067JW  16175.67968044  .00105486  00000-0  14701-2 0  9992","TLE_LINE2":"2 41572  51.6416  25.4481 0003871 210.0901 150.0384 15.56257191  3501","OBJECT_ID":"1998-067JW","OBJECT_NUMBER":"41572","SEMIMAJOR_AXIS":"6776.637","PERIOD":"92.529","APOGEE":"401.125","PERIGEE":"395.879"},{"ORDINAL":"1","COMMENT":"GENERATED VIA SPACETRACK.ORG API","ORIGINATOR":"JSPOC","NORAD_CAT_ID":"41573","OBJECT_NAME":"FLOCK 2E 12","OBJECT_TYPE":"PAYLOAD","CLASSIFICATION_TYPE":"U","INTLDES":"98067JX","EPOCH":"2016-06-23 05:59:56","EPOCH_MICROSECONDS":"181984","MEAN_MOTION":"15.56251308","ECCENTRICITY":"0.0003759","INCLINATION":"51.644","RA_OF_ASC_NODE":"27.5903","ARG_OF_PERICENTER":"221.8845","MEAN_ANOMALY":"250.0992","EPHEMERIS_TYPE":"0","ELEMENT_SET_NO":"999","REV_AT_EPOCH":"343","BSTAR":"0.00017715","MEAN_MOTION_DOT":"0.00012208","MEAN_MOTION_DDOT":"0","FILE":"2050656","TLE_LINE0":"0 FLOCK 2E 12","TLE_LINE1":"1 41573U 98067JX  16175.24995581  .00012208  00000-0  17715-3 0  9990","TLE_LINE2":"2 41573  51.6440  27.5903 0003759 221.8845 250.0992 15.56251308  3435","OBJECT_ID":"1998-067JX","OBJECT_NUMBER":"41573","SEMIMAJOR_AXIS":"6776.654","PERIOD":"92.530","APOGEE":"401.067","PERIGEE":"395.972"},{"ORDINAL":"1","COMMENT":"GENERATED VIA SPACETRACK.ORG API","ORIGINATOR":"JSPOC","NORAD_CAT_ID":"41574","OBJECT_NAME":"FLOCK 2E 11","OBJECT_TYPE":"PAYLOAD","CLASSIFICATION_TYPE":"U","INTLDES":"98067JY","EPOCH":"2016-06-23 14:41:31","EPOCH_MICROSECONDS":"74144","MEAN_MOTION":"15.56509389","ECCENTRICITY":"0.0004705","INCLINATION":"51.6406","RA_OF_ASC_NODE":"25.7447","ARG_OF_PERICENTER":"232.8268","MEAN_ANOMALY":"127.2814","EPHEMERIS_TYPE":"0","ELEMENT_SET_NO":"999","REV_AT_EPOCH":"349","BSTAR":"0.00024746","MEAN_MOTION_DOT":"0.00017927","MEAN_MOTION_DDOT":"0","FILE":"2050754","TLE_LINE0":"0 FLOCK 2E 11","TLE_LINE1":"1 41574U 98067JY  16175.61216521  .00017927  00000-0  24746-3 0  9997","TLE_LINE2":"2 41574  51.6406  25.7447 0004705 232.8268 127.2814 15.56509389  3493","OBJECT_ID":"1998-067JY","OBJECT_NUMBER":"41574","SEMIMAJOR_AXIS":"6775.905","PERIOD":"92.514","APOGEE":"400.958","PERIGEE":"394.582"},{"ORDINAL":"1","COMMENT":"GENERATED VIA SPACETRACK.ORG API","ORIGINATOR":"JSPOC","NORAD_CAT_ID":"41575","OBJECT_NAME":"FLOCK 2EP 9","OBJECT_TYPE":"PAYLOAD","CLASSIFICATION_TYPE":"U","INTLDES":"98067JZ","EPOCH":"2016-06-23 14:42:35","EPOCH_MICROSECONDS":"966592","MEAN_MOTION":"15.5650419","ECCENTRICITY":"0.0004387","INCLINATION":"51.6408","RA_OF_ASC_NODE":"25.7517","ARG_OF_PERICENTER":"260.2494","MEAN_ANOMALY":"99.8522","EPHEMERIS_TYPE":"0","ELEMENT_SET_NO":"999","REV_AT_EPOCH":"348","BSTAR":"0.0002488","MEAN_MOTION_DOT":"0.00018018","MEAN_MOTION_DDOT":"0","FILE":"2050754","TLE_LINE0":"0 FLOCK 2EP 9","TLE_LINE1":"1 41575U 98067JZ  16175.61291628  .00018018  00000-0  24880-3 0  9990","TLE_LINE2":"2 41575  51.6408  25.7517 0004387 260.2494  99.8522 15.56504190  3480","OBJECT_ID":"1998-067JZ","OBJECT_NUMBER":"41575","SEMIMAJOR_AXIS":"6775.920","PERIOD":"92.515","APOGEE":"400.758","PERIGEE":"394.813"},{"ORDINAL":"1","COMMENT":"GENERATED VIA SPACETRACK.ORG API","ORIGINATOR":"JSPOC","NORAD_CAT_ID":"41576","OBJECT_NAME":"FLOCK 2EP 10","OBJECT_TYPE":"PAYLOAD","CLASSIFICATION_TYPE":"U","INTLDES":"98067KA","EPOCH":"2016-06-23 14:45:44","EPOCH_MICROSECONDS":"608896","MEAN_MOTION":"15.56257901","ECCENTRICITY":"0.0004398","INCLINATION":"51.6406","RA_OF_ASC_NODE":"25.7654","ARG_OF_PERICENTER":"253.7846","MEAN_ANOMALY":"106.3181","EPHEMERIS_TYPE":"0","ELEMENT_SET_NO":"999","REV_AT_EPOCH":"338","BSTAR":"0.00027748","MEAN_MOTION_DOT":"0.00019913","MEAN_MOTION_DDOT":"0","FILE":"2050754","TLE_LINE0":"0 FLOCK 2EP 10","TLE_LINE1":"1 41576U 98067KA  16175.61509964  .00019913  00000-0  27748-3 0  9997","TLE_LINE2":"2 41576  51.6406  25.7654 0004398 253.7846 106.3181 15.56257901  3380","OBJECT_ID":"1998-067KA","OBJECT_NUMBER":"41576","SEMIMAJOR_AXIS":"6776.635","PERIOD":"92.529","APOGEE":"401.480","PERIGEE":"395.520"},{"ORDINAL":"1","COMMENT":"GENERATED VIA SPACETRACK.ORG API","ORIGINATOR":"JSPOC","NORAD_CAT_ID":"41577","OBJECT_NAME":"FLOCK 2EP 11","OBJECT_TYPE":"PAYLOAD","CLASSIFICATION_TYPE":"U","INTLDES":"98067KB","EPOCH":"2016-06-23 16:18:29","EPOCH_MICROSECONDS":"8224","MEAN_MOTION":"15.56266173","ECCENTRICITY":"0.0004139","INCLINATION":"51.6476","RA_OF_ASC_NODE":"25.4538","ARG_OF_PERICENTER":"259.1116","MEAN_ANOMALY":"100.9929","EPHEMERIS_TYPE":"0","ELEMENT_SET_NO":"999","REV_AT_EPOCH":"321","BSTAR":"0.00026198","MEAN_MOTION_DOT":"0.00018805","MEAN_MOTION_DDOT":"0","FILE":"2050790","TLE_LINE0":"0 FLOCK 2EP 11","TLE_LINE1":"1 41577U 98067KB  16175.67950241  .00018805  00000-0  26198-3 0  9999","TLE_LINE2":"2 41577  51.6476  25.4538 0004139 259.1116 100.9929 15.56266173  3212","OBJECT_ID":"1998-067KB","OBJECT_NUMBER":"41577","SEMIMAJOR_AXIS":"6776.611","PERIOD":"92.529","APOGEE":"401.281","PERIGEE":"395.671"},{"ORDINAL":"1","COMMENT":"GENERATED VIA SPACETRACK.ORG API","ORIGINATOR":"JSPOC","NORAD_CAT_ID":"41578","OBJECT_NAME":"FLOCK 2EP 12","OBJECT_TYPE":"PAYLOAD","CLASSIFICATION_TYPE":"U","INTLDES":"98067KC","EPOCH":"2016-06-23 04:23:49","EPOCH_MICROSECONDS":"82208","MEAN_MOTION":"15.56143897","ECCENTRICITY":"0.0004089","INCLINATION":"51.6433","RA_OF_ASC_NODE":"27.931","ARG_OF_PERICENTER":"216.5497","MEAN_ANOMALY":"237.6208","EPHEMERIS_TYPE":"0","ELEMENT_SET_NO":"999","REV_AT_EPOCH":"313","BSTAR":"0.00014692","MEAN_MOTION_DOT":"9.997e-05","MEAN_MOTION_DDOT":"0","FILE":"2050531","TLE_LINE0":"0 FLOCK 2EP 12","TLE_LINE1":"1 41578U 98067KC  16175.18320697  .00009997  00000-0  14692-3 0  9990","TLE_LINE2":"2 41578  51.6433  27.9310 0004089 216.5497 237.6208 15.56143897  3130","OBJECT_ID":"1998-067KC","OBJECT_NUMBER":"41578","SEMIMAJOR_AXIS":"6776.966","PERIOD":"92.536","APOGEE":"401.602","PERIGEE":"396.060"},{"ORDINAL":"1","COMMENT":"GENERATED VIA SPACETRACK.ORG API","ORIGINATOR":"JSPOC","NORAD_CAT_ID":"41579","OBJECT_NAME":"COSMOS 2517 (GEO-IK)","OBJECT_TYPE":"PAYLOAD","CLASSIFICATION_TYPE":"U","INTLDES":"16034A","EPOCH":"2016-06-23 10:26:29","EPOCH_MICROSECONDS":"878656","MEAN_MOTION":"13.84101809","ECCENTRICITY":"0.0016013","INCLINATION":"99.2759","RA_OF_ASC_NODE":"182.4432","ARG_OF_PERICENTER":"261.1178","MEAN_ANOMALY":"98.8197","EPHEMERIS_TYPE":"0","ELEMENT_SET_NO":"999","REV_AT_EPOCH":"261","BSTAR":"0.00053117","MEAN_MOTION_DOT":"5.48e-06","MEAN_MOTION_DDOT":"0","FILE":"2050671","TLE_LINE0":"0 COSMOS 2517 (GEO-IK)","TLE_LINE1":"1 41579U 16034A   16175.43506804  .00000548  00000-0  53117-3 0  9997","TLE_LINE2":"2 41579  99.2759 182.4432 0016013 261.1178  98.8197 13.84101809  2616","OBJECT_ID":"2016-034A","OBJECT_NUMBER":"41579","SEMIMAJOR_AXIS":"7327.511","PERIOD":"104.038","APOGEE":"961.109","PERIGEE":"937.642"},{"ORDINAL":"1","COMMENT":"GENERATED VIA SPACETRACK.ORG API","ORIGINATOR":"JSPOC","NORAD_CAT_ID":"41581","OBJECT_NAME":"INTELSAT 31","OBJECT_TYPE":"PAYLOAD","CLASSIFICATION_TYPE":"U","INTLDES":"16035A","EPOCH":"2016-06-11 14:10:09","EPOCH_MICROSECONDS":"784128","MEAN_MOTION":"1.06220206","ECCENTRICITY":"0.7598684","INCLINATION":"29.5156","RA_OF_ASC_NODE":"13.98","ARG_OF_PERICENTER":"180.3527","MEAN_ANOMALY":"92.205","EPHEMERIS_TYPE":"0","ELEMENT_SET_NO":"999","REV_AT_EPOCH":"1","BSTAR":"0","MEAN_MOTION_DOT":"-2.32e-06","MEAN_MOTION_DDOT":"0","FILE":"2045734","TLE_LINE0":"0 INTELSAT 31","TLE_LINE1":"1 41581U 16035A   16163.59039102 -.00000232  00000-0  00000+0 0  9997","TLE_LINE2":"2 41581  29.5156  13.9800 7598684 180.3527  92.2050  1.06220206    11","OBJECT_ID":"2016-035A","OBJECT_NUMBER":"41581","SEMIMAJOR_AXIS":"40575.487","PERIOD":"1355.674","APOGEE":"65029.383","PERIGEE":"3365.321"}]